STARLINK-5442           
1 54784U 22175AC  26017.95774810 -.00001621  00000+0 -83799-4 0  9993
2 54784  53.2172 271.6255 0001364  83.4556 276.6591 15.08831636172268
STARLINK-5440           
1 54785U 22175AD  26017.82481513 -.00000282  00000+0  38534-6 0  9995
2 54785  53.2163 217.3339 0001578  87.6652 272.4521 15.08840051173011
STARLINK-5441           
1 54787U 22175AF  26017.95406323  .00000241  00000+0  33260-4 0  9990
2 54787  53.2172 271.6022 0001394  83.2575 276.8576 15.08836356172264
STARLINK-5399           
1 54788U 22175AG  26017.89841546  .00000331  00000+0  38918-4 0  9999
2 54788  53.2173 257.0023 0001440  82.7915 277.3241 15.08837913172466
STARLINK-5446           
1 54789U 22175AH  26017.89794153  .00000013  00000+0  18882-4 0  9996
2 54789  53.2155 241.9015 0001420  96.4320 263.6834 15.08839268172674
STARLINK-5445           
1 54790U 22175AJ  26017.95729047 -.00000181  00000+0  67154-5 0  9999
2 54790  53.2186 256.6610 0001557  90.5129 269.6042 15.08833863172477
STARLINK-5425           
1 54791U 22175AK  26017.97203139  .00000114  00000+0  25284-4 0  9993
2 54791  53.2172 256.7483 0001415  85.9113 274.2041 15.08834127172471
STARLINK-5431           
1 54792U 22175AL  26017.88045530 -.00000015  00000+0  17176-4 0  9995
2 54792  53.2178 271.8544 0001583  86.7287 273.3886 15.08833596172253
STARLINK-5433           
1 54793U 22175AM  26017.90671718  .00002951  00000+0  20336-3 0  9993
2 54793  53.2161 247.1067 0001144  89.0766 271.0357 15.08856497172605
STARLINK-5436           
1 54795U 22175AP  26017.96097629  .00000388  00000+0  42475-4 0  9995
2 54795  53.2180 256.6828 0001522  94.0473 266.0693 15.08832671172479
STARLINK-5415           
1 54796U 22175AQ  26017.95360047 -.00000155  00000+0  83270-5 0  9994
2 54796  53.2161 256.6361 0001483  87.1762 272.9400 15.08840276172473
STARLINK-5435           
1 54797U 22175AR  26017.96607146 -.00000806  00000+0 -32538-4 0  9994
2 54797  53.2182 271.6731 0001459  86.0930 274.0229 15.08842629172266
STARLINK-5420           
1 54798U 22175AS  26017.88460492  .00000743  00000+0  64786-4 0  9995
2 54798  53.2166 246.9597 0001437  88.7988 271.3169 15.08839757172601
STARLINK-5421           
1 54799U 22175AT  26017.90302840  .00000296  00000+0  36676-4 0  9991
2 54799  53.2173 247.0763 0001475  81.0358 279.0801 15.08840225172606
STARLINK-5428           
1 54800U 22175AU  26017.89242321 -.00000188  00000+0  63064-5 0  9992
2 54800  53.2169 261.9316 0001486  88.5478 271.5685 15.08837868172392
STARLINK-5429           
1 54801U 22175AV  26017.87308566  .00000425  00000+0  44803-4 0  9997
2 54801  53.2201 271.8065 0001869  91.3049 268.8157 15.08835127172256
STARLINK-5426           
1 54802U 22175AW  26017.86158145  .00004248  00000+0  28491-3 0  9994
2 54802  53.2168 216.7568 0001214  88.9765 271.1367 15.08826326173023
STARLINK-5430           
1 54803U 22175AX  26017.88413017  .00000646  00000+0  58702-4 0  9996
2 54803  53.2181 271.8610 0001574  88.0873 272.0299 15.08840829172251
STARLINK-5422           
1 54804U 22175AY  26017.93149064  .00000489  00000+0  48817-4 0  9992
2 54804  53.2166 256.4998 0001516  91.6880 268.4286 15.08842497172479
STARLINK-5417           
1 54805U 22175AZ  26017.94991743 -.00000406  00000+0 -74395-5 0  9995
2 54805  53.2160 256.6128 0001501  87.9110 272.2054 15.08841673172470
STARLINK-5412           
1 54806U 22175BA  26017.93886308  .00000306  00000+0  37334-4 0  9993
2 54806  53.2169 256.5453 0001581  86.4940 273.6233 15.08845081172474
STARLINK-5410           
1 54807U 22175BB  26017.94254518  .00001149  00000+0  90293-4 0  9996
2 54807  53.2165 256.5664 0001583  83.7920 276.3253 15.08843668172476
STARLINK-5413           
1 54808U 22175BC  26017.91639944 -.00000410  00000+0 -76889-5 0  9992
2 54808  53.2169 242.2236 0001445  84.6995 275.4162 15.08831276172670
STARLINK-5414           
1 54809U 22175BD  26017.86893514  .00000235  00000+0  32875-4 0  9991
2 54809  53.2168 256.8163 0001488  89.7947 270.3216 15.08839214172461
STARLINK-5408           
1 54810U 22175BE  26017.88966354  .00000969  00000+0  78978-4 0  9996
2 54810  53.2171 251.9433 0001515  90.9792 269.1374 15.08842255172534
STARLINK-5424           
1 54811U 22175BF  26017.91642232  .00011652  00000+0  74840-3 0  9991
2 54811  53.2174 252.0960 0001580  88.9869 271.1304 15.08867602172538
STARLINK-5382           
1 54820U 22177A   26017.44520066 -.00000864  00000+0 -48893-4 0  9996
2 54820  43.0025  52.0516 0001122 266.0625  94.0089 15.02535980169247
STARLINK-5385           
1 54821U 22177B   26017.76537971 -.00000246  00000+0 -31054-5 0  9991
2 54821  43.0045  50.1621 0001176 276.4831  83.5877 15.02534958169296
STARLINK-5101           
1 54822U 22177C   26017.42856213 -.00001300  00000+0 -81219-4 0  9997
2 54822  43.0035  51.9293 0001084 262.0013  98.0707 15.02525796169249
STARLINK-5106           
1 54823U 22177D   26017.77425797  .00000116  00000+0  23632-4 0  9992
2 54823  43.0036  50.2220 0001273 270.6431  89.4265 15.02532244169296
STARLINK-4643           
1 54824U 22177E   26017.77095314  .00006815  00000+0  51960-3 0  9997
2 54824  43.0031  50.2015 0000455 274.0198  86.0592 15.02497572169293
STARLINK-5107           
1 54826U 22177G   26017.49614160 -.00000843  00000+0 -47288-4 0  9990
2 54826  43.0053  51.5784 0001352 269.0073  91.0615 15.02544603169255
STARLINK-5383           
1 54827U 22177H   26017.15597910 -.00000074  00000+0  96013-5 0  9993
2 54827  43.0036  53.3201 0001226 262.6711  97.3992 15.02535087169218
STARLINK-5381           
1 54828U 22177J   26017.35209508  .00001460  00000+0  12312-3 0  9996
2 54828  43.0044  52.2157 0001526 267.4226  92.6441 15.02530383169236
STARLINK-5394           
1 54830U 22177L   26017.14709954 -.00000098  00000+0  78212-5 0  9996
2 54830  43.0051  53.2566 0001258 269.6989  90.3709 15.02534264169205
STARLINK-5395           
1 54831U 22177M   26017.76426741 -.00000853  00000+0 -48107-4 0  9994
2 54831  43.0044  50.1405 0001180 254.8158 105.2554 15.02524555169299
STARLINK-5391           
1 54833U 22177P   26018.00002315  .01124535  00000+0  12253-1 0  9994
2 54833  42.9974  38.7760 0002110 280.2081 193.5119 15.59939984  5844
STARLINK-5386           
1 54834U 22177Q   26017.81076528  .00000629  00000+0  61644-4 0  9997
2 54834  43.0032  49.6307 0001049 254.0738 105.9989 15.02535391169315
STARLINK-5389           
1 54835U 22177R   26017.81520450 -.00000132  00000+0  53191-5 0  9995
2 54835  43.0043  49.6713 0001248 272.9467  87.1232 15.02537277169304
STARLINK-5384           
1 54836U 22177S   26017.80744493 -.00001959  00000+0 -13002-3 0  9994
2 54836  43.0013  49.6054 0000288  49.9635 310.1233 15.02522637169317
STARLINK-5369           
1 54837U 22177T   26017.14377236 -.00000404  00000+0 -14836-4 0  9990
2 54837  43.0042  53.2323 0001209 267.9963  92.0740 15.02535230169200
STARLINK-5372           
1 54838U 22177U   26017.80077894 -.00000459  00000+0 -18929-4 0  9998
2 54838  43.0046  49.5625 0001256 277.3992  82.6708 15.02539639169304
STARLINK-5368           
1 54840U 22177W   26017.79189891 -.00000242  00000+0 -28689-5 0  9995
2 54840  43.0046  49.4910 0001178 272.8488  87.2220 15.02537470169307
STARLINK-4659           
1 54841U 22177X   26017.80410635  .00004448  00000+0  34406-3 0  9993
2 54841  43.0055  49.5833 0001840 295.9418  64.1234 15.02544490169307
STARLINK-5387           
1 54842U 22177Y   26017.78523991  .00000060  00000+0  19509-4 0  9995
2 54842  43.0037  49.4448 0001288 269.7429  90.3265 15.02532316169305
STARLINK-5304           
1 54843U 22177Z   26017.79744831  .00000351  00000+0  41051-4 0  9995
2 54843  43.0014  49.5355 0001100 267.6788  92.3928 15.02533891169304
STARLINK-5388           
1 54844U 22177AA  26017.78079020  .00000926  00000+0  83578-4 0  9994
2 54844  43.0050  49.3898 0001353 271.1534  88.9153 15.02539290169304
STARLINK-5082           
1 54845U 22177AB  26017.45618354 -.00000666  00000+0 -34201-4 0  9990
2 54845  43.0040  51.2709 0001023 289.6037  70.4694 15.02540844169250
STARLINK-5360           
1 54846U 22177AC  26017.78191141  .00000123  00000+0  24158-4 0  9993
2 54846  43.0048  49.4196 0001447 271.1795  88.8881 15.02535998169306
STARLINK-5061           
1 54847U 22177AD  26017.74257924  .00000942  00000+0  84794-4 0  9993
2 54847  43.0048  23.9711 0001488 263.0722  96.9951 15.02541089169599
STARLINK-5432           
1 54848U 22177AE  26017.44989434 -.00000461  00000+0 -19059-4 0  9999
2 54848  43.0054  39.0738 0001320 266.5559  93.5133 15.02536694169394
STARLINK-5087           
1 54850U 22177AG  26017.77784518 -.00000058  00000+0  10747-4 0  9990
2 54850  43.0051  37.2328 0001257 275.4804  84.5895 15.02534674169447
STARLINK-5084           
1 54851U 22177AH  26017.78117426 -.00000118  00000+0  63488-5 0  9998
2 54851  43.0041  37.2631 0001153 267.6004  92.4706 15.02536633169440
STARLINK-5418           
1 54852U 22177AJ  26017.77118513 -.00000452  00000+0 -18406-4 0  9997
2 54852  43.0055  37.1822 0001547 268.6325  91.4340 15.02544222169447
STARLINK-5427           
1 54853U 22177AK  26017.77451057  .00000259  00000+0  34219-4 0  9994
2 54853  43.0068  37.2150 0001487 270.4802  89.5870 15.02538330169440
STARLINK-5416           
1 54855U 22177AM  26017.76785080 -.00001491  00000+0 -95320-4 0  9992
2 54855  43.0046  37.1622 0001319 270.0427  90.0264 15.02538496169441
STARLINK-5086           
1 54856U 22177AN  26017.74787140  .00000680  00000+0  65415-4 0  9999
2 54856  43.0050  37.0124 0001339 277.3738  82.6952 15.02539726169448
STARLINK-5078           
1 54857U 22177AP  26017.75897804  .00000420  00000+0  46130-4 0  9995
2 54857  43.0046  37.1009 0001164 266.3875  93.6834 15.02539696169440
STARLINK-5407           
1 54858U 22177AQ  26017.76118407 -.00003228  00000+0 -22377-3 0  9999
2 54858  43.0053  37.1064 0001267 286.0851  73.9852 15.02570257169446
